ADASPACE #400126
1 99999U 24029BR  24283.46883102  .00001103  00000-0  33518-4 0  9998
2 99999  97.5000 227.5036 0003481 299.7327   0.3331 15.07816962  1771
ADASPACE #400127
1 99999U 24029BR  24283.46883102  .00001103  00000-0  33518-4 0  9998
2 99999  97.5000 229.3036 0003481 299.7327   0.3331 15.07816962  1771
ADASPACE #400128
1 99999U 24029BR  24283.46883102  .00001103  00000-0  33518-4 0  9998
2 99999  97.5000 231.1036 0003481 299.7327   0.3331 15.07816962  1771
ADASPACE #400129
1 99999U 24029BR  24283.46883102  .00001103  00000-0  33518-4 0  9998
2 99999  97.5000 232.9036 0003481 299.7327   0.3331 15.07816962  1771
ADASPACE #400130
1 99999U 24029BR  24283.46883102  .00001103  00000-0  33518-4 0  9998
2 99999  97.5000 234.7036 0003481 299.7327   0.3331 15.07816962  1771
ADASPACE #400131
1 99999U 24029BR  24283.46883102  .00001103  00000-0  33518-4 0  9998
2 99999  97.5000 236.5036 0003481 299.7327   0.3331 15.07816962  1771
ADASPACE #400132
1 99999U 24029BR  24283.46883102  .00001103  00000-0  33518-4 0  9998
2 99999  97.5000 238.3036 0003481 299.7327   0.3331 15.07816962  1771
ADASPACE #400133
1 99999U 24029BR  24283.46883102  .00001103  00000-0  33518-4 0  9998
2 99999  97.5000 240.1036 0003481 299.7327   0.3331 15.07816962  1771
ADASPACE #400134
1 99999U 24029BR  24283.46883102  .00001103  00000-0  33518-4 0  9998
2 99999  97.5000 241.9036 0003481 299.7327   0.3331 15.07816962  1771
ADASPACE #400135
1 99999U 24029BR  24283.46883102  .00001103  00000-0  33518-4 0  9998
2 99999  97.5000 243.7036 0003481 299.7327   0.3331 15.07816962  1771
ADASPACE #400136
1 99999U 24029BR  24283.46883102  .00001103  00000-0  33518-4 0  9998
2 99999  97.5000 245.5036 0003481 299.7327   0.3331 15.07816962  1771
ADASPACE #400137
1 99999U 24029BR  24283.46883102  .00001103  00000-0  33518-4 0  9998
2 99999  97.5000 247.3036 0003481 299.7327   0.3331 15.07816962  1771
ADASPACE #400138
1 99999U 24029BR  24283.46883102  .00001103  00000-0  33518-4 0  9998
2 99999  97.5000 249.1036 0003481 299.7327   0.3331 15.07816962  1771
ADASPACE #400139
1 99999U 24029BR  24283.46883102  .00001103  00000-0  33518-4 0  9998
2 99999  97.5000 250.9036 0003481 299.7327   0.3331 15.07816962  1771
ADASPACE #400140
1 99999U 24029BR  24283.46883102  .00001103  00000-0  33518-4 0  9998
2 99999  97.5000 252.7036 0003481 299.7327   0.3331 15.07816962  1771
ADASPACE #400141
1 99999U 24029BR  24283.46883102  .00001103  00000-0  33518-4 0  9998
2 99999  97.5000 254.5036 0003481 299.7327   0.3331 15.07816962  1771
ADASPACE #400142
1 99999U 24029BR  24283.46883102  .00001103  00000-0  33518-4 0  9998
2 99999  97.5000 256.3036 0003481 299.7327   0.3331 15.07816962  1771
ADASPACE #400143
1 99999U 24029BR  24283.46883102  .00001103  00000-0  33518-4 0  9998
2 99999  97.5000 258.1036 0003481 299.7327   0.3331 15.07816962  1771
ADASPACE #400144
1 99999U 24029BR  24283.46883102  .00001103  00000-0  33518-4 0  9998
2 99999  97.5000 259.9036 0003481 299.7327   0.3331 15.07816962  1771
ADASPACE #400145
1 99999U 24029BR  24283.46883102  .00001103  00000-0  33518-4 0  9998
2 99999  97.5000 261.7036 0003481 299.7327   0.3331 15.07816962  1771
ADASPACE #400146
1 99999U 24029BR  24283.46883102  .00001103  00000-0  33518-4 0  9998
2 99999  97.5000 263.5036 0003481 299.7327   0.3331 15.07816962  1771
ADASPACE #400147
1 99999U 24029BR  24283.46883102  .00001103  00000-0  33518-4 0  9998
2 99999  97.5000 265.3036 0003481 299.7327   0.3331 15.07816962  1771
ADASPACE #400148
1 99999U 24029BR  24283.46883102  .00001103  00000-0  33518-4 0  9998
2 99999  97.5000 267.1036 0003481 299.7327   0.3331 15.07816962  1771
ADASPACE #400149
1 99999U 24029BR  24283.46883102  .00001103  00000-0  33518-4 0  9998
2 99999  97.5000 268.9036 0003481 299.7327   0.3331 15.07816962  1771
ADASPACE #400150
1 99999U 24029BR  24283.46883102  .00001103  00000-0  33518-4 0  9998
2 99999  97.5000 270.7036 0003481 299.7327   0.3331 15.07816962  1771
ADASPACE #400151
1 99999U 24029BR  24283.46883102  .00001103  00000-0  33518-4 0  9998
2 99999  97.5000 272.5036 0003481 299.7327   0.3331 15.07816962  1771
ADASPACE #400152
1 99999U 24029BR  24283.46883102  .00001103  00000-0  33518-4 0  9998
2 99999  97.5000 274.3036 0003481 299.7327   0.3331 15.07816962  1771
ADASPACE #400153
1 99999U 24029BR  24283.46883102  .00001103  00000-0  33518-4 0  9998
2 99999  97.5000 276.1036 0003481 299.7327   0.3331 15.07816962  1771
ADASPACE #400154
1 99999U 24029BR  24283.46883102  .00001103  00000-0  33518-4 0  9998
2 99999  97.5000 277.9036 0003481 299.7327   0.3331 15.07816962  1771
ADASPACE #400155
1 99999U 24029BR  24283.46883102  .00001103  00000-0  33518-4 0  9998
2 99999  97.5000 279.7036 0003481 299.7327   0.3331 15.07816962  1771
ADASPACE #400156
1 99999U 24029BR  24283.46883102  .00001103  00000-0  33518-4 0  9998
2 99999  97.5000 281.5036 0003481 299.7327   0.3331 15.07816962  1771
ADASPACE #400157
1 99999U 24029BR  24283.46883102  .00001103  00000-0  33518-4 0  9998
2 99999  97.5000 283.3036 0003481 299.7327   0.3331 15.07816962  1771
ADASPACE #400158
1 99999U 24029BR  24283.46883102  .00001103  00000-0  33518-4 0  9998
2 99999  97.5000 285.1036 0003481 299.7327   0.3331 15.07816962  1771
ADASPACE #400159
1 99999U 24029BR  24283.46883102  .00001103  00000-0  33518-4 0  9998
2 99999  97.5000 286.9036 0003481 299.7327   0.3331 15.07816962  1771
ADASPACE #400160
1 99999U 24029BR  24283.46883102  .00001103  00000-0  33518-4 0  9998
2 99999  97.5000 288.7036 0003481 299.7327   0.3331 15.07816962  1771
ADASPACE #400161
1 99999U 24029BR  24283.46883102  .00001103  00000-0  33518-4 0  9998
2 99999  97.5000 290.5036 0003481 299.7327   0.3331 15.07816962  1771
ADASPACE #400162
1 99999U 24029BR  24283.46883102  .00001103  00000-0  33518-4 0  9998
2 99999  97.5000 292.3036 0003481 299.7327   0.3331 15.07816962  1771
ADASPACE #400163
1 99999U 24029BR  24283.46883102  .00001103  00000-0  33518-4 0  9998
2 99999  97.5000 294.1036 0003481 299.7327   0.3331 15.07816962  1771
ADASPACE #400164
1 99999U 24029BR  24283.46883102  .00001103  00000-0  33518-4 0  9998
2 99999  97.5000 295.9036 0003481 299.7327   0.3331 15.07816962  1771
ADASPACE #400165
1 99999U 24029BR  24283.46883102  .00001103  00000-0  33518-4 0  9998
2 99999  97.5000 297.7036 0003481 299.7327   0.3331 15.07816962  1771
ADASPACE #400166
1 99999U 24029BR  24283.46883102  .00001103  00000-0  33518-4 0  9998
2 99999  97.5000 299.5036 0003481 299.7327   0.3331 15.07816962  1771
ADASPACE #400167
1 99999U 24029BR  24283.46883102  .00001103  00000-0  33518-4 0  9998
2 99999  97.5000 301.3036 0003481 299.7327   0.3331 15.07816962  1771
ADASPACE #400168
1 99999U 24029BR  24283.46883102  .00001103  00000-0  33518-4 0  9998
2 99999  97.5000 303.1036 0003481 299.7327   0.3331 15.07816962  1771
ADASPACE #400169
1 99999U 24029BR  24283.46883102  .00001103  00000-0  33518-4 0  9998
2 99999  97.5000 304.9036 0003481 299.7327   0.3331 15.07816962  1771
ADASPACE #400170
1 99999U 24029BR  24283.46883102  .00001103  00000-0  33518-4 0  9998
2 99999  97.5000 306.7036 0003481 299.7327   0.3331 15.07816962  1771
ADASPACE #400171
1 99999U 24029BR  24283.46883102  .00001103  00000-0  33518-4 0  9998
2 99999  97.5000 308.5036 0003481 299.7327   0.3331 15.07816962  1771
ADASPACE #400172
1 99999U 24029BR  24283.46883102  .00001103  00000-0  33518-4 0  9998
2 99999  97.5000 310.3036 0003481 299.7327   0.3331 15.07816962  1771
ADASPACE #400173
1 99999U 24029BR  24283.46883102  .00001103  00000-0  33518-4 0  9998
2 99999  97.5000 312.1036 0003481 299.7327   0.3331 15.07816962  1771
ADASPACE #400174
1 99999U 24029BR  24283.46883102  .00001103  00000-0  33518-4 0  9998
2 99999  97.5000 313.9036 0003481 299.7327   0.3331 15.07816962  1771
ADASPACE #400175
1 99999U 24029BR  24283.46883102  .00001103  00000-0  33518-4 0  9998
2 99999  97.5000 315.7036 0003481 299.7327   0.3331 15.07816962  1771
ADASPACE #400176
1 99999U 24029BR  24283.46883102  .00001103  00000-0  33518-4 0  9998
2 99999  97.5000 317.5036 0003481 299.7327   0.3331 15.07816962  1771
ADASPACE #400177
1 99999U 24029BR  24283.46883102  .00001103  00000-0  33518-4 0  9998
2 99999  97.5000 319.3036 0003481 299.7327   0.3331 15.07816962  1771
ADASPACE #400178
1 99999U 24029BR  24283.46883102  .00001103  00000-0  33518-4 0  9998
2 99999  97.5000 321.1036 0003481 299.7327   0.3331 15.07816962  1771
ADASPACE #400179
1 99999U 24029BR  24283.46883102  .00001103  00000-0  33518-4 0  9998
2 99999  97.5000 322.9036 0003481 299.7327   0.3331 15.07816962  1771
ADASPACE #400180
1 99999U 24029BR  24283.46883102  .00001103  00000-0  33518-4 0  9998
2 99999  97.5000 324.7036 0003481 299.7327   0.3331 15.07816962  1771
ADASPACE #400181
1 99999U 24029BR  24283.46883102  .00001103  00000-0  33518-4 0  9998
2 99999  97.5000 326.5036 0003481 299.7327   0.3331 15.07816962  1771
ADASPACE #400182
1 99999U 24029BR  24283.46883102  .00001103  00000-0  33518-4 0  9998
2 99999  97.5000 328.3036 0003481 299.7327   0.3331 15.07816962  1771
ADASPACE #400183
1 99999U 24029BR  24283.46883102  .00001103  00000-0  33518-4 0  9998
2 99999  97.5000 330.1036 0003481 299.7327   0.3331 15.07816962  1771
ADASPACE #400184
1 99999U 24029BR  24283.46883102  .00001103  00000-0  33518-4 0  9998
2 99999  97.5000 331.9036 0003481 299.7327   0.3331 15.07816962  1771
ADASPACE #400185
1 99999U 24029BR  24283.46883102  .00001103  00000-0  33518-4 0  9998
2 99999  97.5000 333.7036 0003481 299.7327   0.3331 15.07816962  1771
ADASPACE #400186
1 99999U 24029BR  24283.46883102  .00001103  00000-0  33518-4 0  9998
2 99999  97.5000 335.5036 0003481 299.7327   0.3331 15.07816962  1771
ADASPACE #400187
1 99999U 24029BR  24283.46883102  .00001103  00000-0  33518-4 0  9998
2 99999  97.5000 337.3036 0003481 299.7327   0.3331 15.07816962  1771
ADASPACE #400188
1 99999U 24029BR  24283.46883102  .00001103  00000-0  33518-4 0  9998
2 99999  97.5000 339.1036 0003481 299.7327   0.3331 15.07816962  1771
